CCSDS_OMM_VERS = 2.0
CREATION_DATE  = 
ORIGINATOR     = 

OBJECT_NAME    = CZ-2C R/B
OBJECT_ID      = 2022-132E
CENTER_NAME    = EARTH
REF_FRAME      = TEME
TIME_SYSTEM    = UTC
MEAN_ELEMENT_THEORY = SGP/SGP4

EPOCH          = 2026-01-08T11:49:59.386944
MEAN_MOTION    = 15.56785046
ECCENTRICITY   = .0017938
INCLINATION    = 97.2952
RA_OF_ASC_NODE = 10.2389
ARG_OF_PERICENTER = 320.4157
MEAN_ANOMALY   = 39.5788

EPHEMERIS_TYPE = 0
CLASSIFICATION_TYPE = U
NORAD_CAT_ID   = 54039
ELEMENT_SET_NO = 999
REV_AT_EPOCH   = 18099
BSTAR          = .53043E-3
MEAN_MOTION_DOT = .38265E-3
MEAN_MOTION_DDOT = 0

CCSDS_OMM_VERS = 2.0
CREATION_DATE  = 
ORIGINATOR     = 

OBJECT_NAME    = GSLV R/B
OBJECT_ID      = 2022-138AN
CENTER_NAME    = EARTH
REF_FRAME      = TEME
TIME_SYSTEM    = UTC
MEAN_ELEMENT_THEORY = SGP/SGP4

EPOCH          = 2026-01-08T11:22:57.741024
MEAN_MOTION    = 14.96302334
ECCENTRICITY   = .0022363
INCLINATION    = 87.3828
RA_OF_ASC_NODE = 186.5189
ARG_OF_PERICENTER = 16.6813
MEAN_ANOMALY   = 343.5149

EPHEMERIS_TYPE = 0
CLASSIFICATION_TYPE = U
NORAD_CAT_ID   = 54149
ELEMENT_SET_NO = 999
REV_AT_EPOCH   = 17492
BSTAR          = .25233E-3
MEAN_MOTION_DOT = .2893E-4
MEAN_MOTION_DDOT = 0

CCSDS_OMM_VERS = 2.0
CREATION_DATE  = 
ORIGINATOR     = 

OBJECT_NAME    = XRISM
OBJECT_ID      = 2023-137A
CENTER_NAME    = EARTH
REF_FRAME      = TEME
TIME_SYSTEM    = UTC
MEAN_ELEMENT_THEORY = SGP/SGP4

EPOCH          = 2026-01-08T04:48:50.606208
MEAN_MOTION    = 15.10703675
ECCENTRICITY   = .0007816
INCLINATION    = 31.0030
RA_OF_ASC_NODE = 314.6652
ARG_OF_PERICENTER = 154.6368
MEAN_ANOMALY   = 205.4655

EPHEMERIS_TYPE = 0
CLASSIFICATION_TYPE = U
NORAD_CAT_ID   = 57800
ELEMENT_SET_NO = 999
REV_AT_EPOCH   = 12863
BSTAR          = .39492E-3
MEAN_MOTION_DOT = .6805E-4
MEAN_MOTION_DDOT = 0

CCSDS_OMM_VERS = 2.0
CREATION_DATE  = 
ORIGINATOR     = 

OBJECT_NAME    = ACS3
OBJECT_ID      = 2024-077B
CENTER_NAME    = EARTH
REF_FRAME      = TEME
TIME_SYSTEM    = UTC
MEAN_ELEMENT_THEORY = SGP/SGP4

EPOCH          = 2026-01-08T11:04:03.346176
MEAN_MOTION    = 13.86938598
ECCENTRICITY   = .0065007
INCLINATION    = 97.2478
RA_OF_ASC_NODE = 323.0955
ARG_OF_PERICENTER = 271.0613
MEAN_ANOMALY   = 88.3102

EPHEMERIS_TYPE = 0
CLASSIFICATION_TYPE = U
NORAD_CAT_ID   = 59588
ELEMENT_SET_NO = 999
REV_AT_EPOCH   = 8584
BSTAR          = .14164E-1
MEAN_MOTION_DOT = .16841E-3
MEAN_MOTION_DDOT = 0

CCSDS_OMM_VERS = 2.0
CREATION_DATE  = 
ORIGINATOR     = 

OBJECT_NAME    = SZ-21 MODULE
OBJECT_ID      = 2025-246C
CENTER_NAME    = EARTH
REF_FRAME      = TEME
TIME_SYSTEM    = UTC
MEAN_ELEMENT_THEORY = SGP/SGP4

EPOCH          = 2026-01-07T20:39:08.061408
MEAN_MOTION    = 15.64106684
ECCENTRICITY   = .00014946
INCLINATION    = 41.4742
RA_OF_ASC_NODE = 216.5245
ARG_OF_PERICENTER = 84.1343
MEAN_ANOMALY   = 275.9668

EPHEMERIS_TYPE = 0
CLASSIFICATION_TYPE = U
NORAD_CAT_ID   = 66515
ELEMENT_SET_NO = 999
REV_AT_EPOCH   = 853
BSTAR          = .26191796E-3
MEAN_MOTION_DOT = .25291E-3
MEAN_MOTION_DDOT = 0

