CZ-2C R/B               
1 54039U 22132E   26008.49304846  .00038265  00000+0  53043-3 0  9996
2 54039  97.2952  10.2389 0017938 320.4157  39.5788 15.56785046180994
GSLV R/B                
1 54149U 22138AN  26008.47427941  .00002893  00000+0  25233-3 0  9992
2 54149  87.3828 186.5189 0022363  16.6813 343.5149 14.96302334174927
XRISM                   
1 57800U 23137A   26008.20058572  .00006805  00000+0  39492-3 0  9999
2 57800  31.0030 314.6652 0007816 154.6368 205.4655 15.10703675128633
ACS3                    
1 59588U 24077B   26008.46114984  .00016841  00000+0  14164-1 0  9994
2 59588  97.2478 323.0955 0065007 271.0613  88.3102 13.86938598 85846
SZ-21 MODULE            
1 66515U 25246C   26007.86050997  .00025291  00000+0  26192-3 0  9992
2 66515  41.4742 216.5245 0001494  84.1343 275.9668 15.64106684  8533
